start=new Date('2022-03-01T00:00:00.000Z').valueOf();
sats=[{"ELEMENT_SET_NO":"999","CLASSIFICATION_TYPE":"U","DECAY_DATE":null,"SITE":"AFETR","ECCENTRICITY":"0.00019650","MEAN_ANOMALY":"3.8239","EPOCH":"2022-02-28T22:00:00.999936","LAUNCH_DATE":"2022-01-06","RA_OF_ASC_NODE":"299.7243","INCLINATION":"53.2176","PERIOD":"93.459","SEMIMAJOR_AXIS":"6821.923","OBJECT_NAME":"STARLINK-3311","MEAN_MOTION_DDOT":"0.0000000000000","MEAN_MOTION_DOT":"-0.00663256","TIME_SYSTEM":"UTC","ARG_OF_PERICENTER":"28.2258","REF_FRAME":"TEME","GP_ID":"197413421","PERIAPSIS":"442.447","MEAN_MOTION":"15.40786846","CENTER_NAME":"EARTH","TLE_LINE1":"1 50849U 22001AY  22059.91667824 -.00663256  00000-0 -17150-1 0  9997","BSTAR":"-0.01715000000000","MEAN_ELEMENT_THEORY":"SGP4","EPHEMERIS_TYPE":"0","OBJECT_ID":"2022-001AY","RCS_SIZE":"LARGE","REV_AT_EPOCH":"367","OBJECT_TYPE":"PAYLOAD","TLE_LINE2":"2 50849  53.2176 299.7243 0001965  28.2258   3.8239 15.40786846  3676","FILE":"3334872","APOAPSIS":"445.128","NORAD_CAT_ID":"50849","COUNTRY_CODE":"US"},{"BSTAR":"-0.00009144200000","TLE_LINE1":"1 50850U 22001AZ  22059.91667824 -.00013440  00000-0 -91442-4 0  9992","EPHEMERIS_TYPE":"0","MEAN_ELEMENT_THEORY":"SGP4","MEAN_MOTION_DOT":"-0.00013440","MEAN_MOTION_DDOT":"0.0000000000000","OBJECT_NAME":"STARLINK-3312","SEMIMAJOR_AXIS":"6727.867","PERIOD":"91.533","GP_ID":"197412169","PERIAPSIS":"348.477","MEAN_MOTION":"15.73209807","CENTER_NAME":"EARTH","REF_FRAME":"TEME","ARG_OF_PERICENTER":"27.8006","TIME_SYSTEM":"UTC","OBJECT_TYPE":"PAYLOAD","REV_AT_EPOCH":"370","COUNTRY_CODE":"US","APOAPSIS":"350.987","NORAD_CAT_ID":"50850","TLE_LINE2":"2 50850  53.2142 296.6210 0001865  27.8006  96.1516 15.73209807  3706","FILE":"3334872","RCS_SIZE":"LARGE","OBJECT_ID":"2022-001AZ","SITE":"AFETR","MEAN_ANOMALY":"96.1516","ECCENTRICITY":"0.00018650","DECAY_DATE":null,"ELEMENT_SET_NO":"999","CLASSIFICATION_TYPE":"U","RA_OF_ASC_NODE":"296.6210","LAUNCH_DATE":"2022-01-06","INCLINATION":"53.2142","EPOCH":"2022-02-28T22:00:00.999936"},{"BSTAR":"-0.01688500000000","TLE_LINE1":"1 50851U 22001BA  22059.91667824 -.00663281  00000-0 -16885-1 0  9992","MEAN_ELEMENT_THEORY":"SGP4","EPHEMERIS_TYPE":"0","MEAN_MOTION_DOT":"-0.00663281","MEAN_MOTION_DDOT":"0.0000000000000","OBJECT_NAME":"STARLINK-3314","SEMIMAJOR_AXIS":"6820.543","PERIOD":"93.430","PERIAPSIS":"441.095","GP_ID":"197412419","MEAN_MOTION":"15.41254547","CENTER_NAME":"EARTH","REF_FRAME":"TEME","TIME_SYSTEM":"UTC","ARG_OF_PERICENTER":"30.3206","OBJECT_TYPE":"PAYLOAD","REV_AT_EPOCH":"367","COUNTRY_CODE":"US","APOAPSIS":"443.720","NORAD_CAT_ID":"50851","TLE_LINE2":"2 50851  53.2176 299.7212 0001924  30.3206  43.0122 15.41254547  3673","FILE":"3334872","RCS_SIZE":"LARGE","OBJECT_ID":"2022-001BA","SITE":"AFETR","MEAN_ANOMALY":"43.0122","ECCENTRICITY":"0.00019240","DECAY_DATE":null,"ELEMENT_SET_NO":"999","CLASSIFICATION_TYPE":"U","RA_OF_ASC_NODE":"299.7212","LAUNCH_DATE":"2022-01-06","INCLINATION":"53.2176","EPOCH":"2022-02-28T22:00:00.999936"},{"TLE_LINE1":"1 51104U 22005A   22059.91667824  .00442805  00000-0  30490-2 0  9992","BSTAR":"0.00304900000000","EPHEMERIS_TYPE":"0","MEAN_ELEMENT_THEORY":"SGP4","MEAN_MOTION_DDOT":"0.0000000000000","OBJECT_NAME":"STARLINK-3366","MEAN_MOTION_DOT":"0.00442805","PERIOD":"91.557","SEMIMAJOR_AXIS":"6729.069","CENTER_NAME":"EARTH","GP_ID":"197373697","PERIAPSIS":"348.569","MEAN_MOTION":"15.72788477","ARG_OF_PERICENTER":"17.2267","TIME_SYSTEM":"UTC","REF_FRAME":"TEME","OBJECT_TYPE":"PAYLOAD","REV_AT_EPOCH":"775","NORAD_CAT_ID":"51104","APOAPSIS":"353.298","COUNTRY_CODE":"US","FILE":"3334041","TLE_LINE2":"2 51104  53.2163  72.2056 0003514  17.2267 255.0545 15.72788477  7754","RCS_SIZE":"LARGE","OBJECT_ID":"2022-005A","SITE":"AFETR","MEAN_ANOMALY":"255.0545","ECCENTRICITY":"0.00035140","DECAY_DATE":null,"ELEMENT_SET_NO":"999","CLASSIFICATION_TYPE":"U","RA_OF_ASC_NODE":"72.2056","LAUNCH_DATE":"2022-01-19","INCLINATION":"53.2163","EPOCH":"2022-02-28T22:00:00.999936"},{"ELEMENT_SET_NO":"999","CLASSIFICATION_TYPE":"U","DECAY_DATE":null,"SITE":"AFETR","ECCENTRICITY":"0.00033740","MEAN_ANOMALY":"254.1257","EPOCH":"2022-02-28T22:00:00.999936","LAUNCH_DATE":"2022-01-19","RA_OF_ASC_NODE":"72.2324","INCLINATION":"53.2147","PERIOD":"91.536","SEMIMAJOR_AXIS":"6728.045","OBJECT_NAME":"STARLINK-3350","MEAN_MOTION_DDOT":"0.0000000000000","MEAN_MOTION_DOT":"0.00088621","ARG_OF_PERICENTER":"11.1740","TIME_SYSTEM":"UTC","REF_FRAME":"TEME","GP_ID":"197373203","MEAN_MOTION":"15.73147420","PERIAPSIS":"347.640","CENTER_NAME":"EARTH","TLE_LINE1":"1 51105U 22005B   22059.91667824  .00088621  00000-0  63049-3 0  9992","BSTAR":"0.00063049000000","EPHEMERIS_TYPE":"0","MEAN_ELEMENT_THEORY":"SGP4","OBJECT_ID":"2022-005B","RCS_SIZE":"LARGE","REV_AT_EPOCH":"775","OBJECT_TYPE":"PAYLOAD","FILE":"3334041","TLE_LINE2":"2 51105  53.2147  72.2324 0003374  11.1740 254.1257 15.73147420  7756","NORAD_CAT_ID":"51105","APOAPSIS":"352.180","COUNTRY_CODE":"US"},{"EPOCH":"2022-02-28T22:00:00.999936","INCLINATION":"53.2144","LAUNCH_DATE":"2022-01-19","RA_OF_ASC_NODE":"72.2266","ELEMENT_SET_NO":"999","CLASSIFICATION_TYPE":"U","DECAY_DATE":null,"ECCENTRICITY":"0.00032690","MEAN_ANOMALY":"260.7517","SITE":"AFETR","OBJECT_ID":"2022-005C","RCS_SIZE":"LARGE","FILE":"3334872","TLE_LINE2":"2 51106  53.2144  72.2266 0003269   8.3039 260.7517 15.73177846  3697","APOAPSIS":"352.023","NORAD_CAT_ID":"51106","COUNTRY_CODE":"US","REV_AT_EPOCH":"369","OBJECT_TYPE":"PAYLOAD","ARG_OF_PERICENTER":"8.3039","TIME_SYSTEM":"UTC","REF_FRAME":"TEME","PERIAPSIS":"347.624","GP_ID":"197414052","MEAN_MOTION":"15.73177846","CENTER_NAME":"EARTH","PERIOD":"91.534","SEMIMAJOR_AXIS":"6727.958","MEAN_MOTION_DDOT":"0.0000000000000","OBJECT_NAME":"STARLINK-3176","MEAN_MOTION_DOT":"-0.00002945","EPHEMERIS_TYPE":"0","MEAN_ELEMENT_THEORY":"SGP4","TLE_LINE1":"1 51106U 22005C   22059.91667824 -.00002945  00000-0 -16563-4 0  9990","BSTAR":"-0.00001656300000"},{"SITE":"AFETR","MEAN_ANOMALY":"254.9873","ECCENTRICITY":"0.00029900","DECAY_DATE":null,"ELEMENT_SET_NO":"999","CLASSIFICATION_TYPE":"U","RA_OF_ASC_NODE":"72.2336","LAUNCH_DATE":"2022-01-19","INCLINATION":"53.2143","EPOCH":"2022-02-28T22:00:00.999936","TLE_LINE1":"1 51107U 22005D   22059.91667824  .00058834  00000-0  42158-3 0  9995","BSTAR":"0.00042158000000","EPHEMERIS_TYPE":"0","MEAN_ELEMENT_THEORY":"SGP4","MEAN_MOTION_DDOT":"0.0000000000000","OBJECT_NAME":"STARLINK-3368","MEAN_MOTION_DOT":"0.00058834","PERIOD":"91.536","SEMIMAJOR_AXIS":"6728.048","CENTER_NAME":"EARTH","GP_ID":"197414649","PERIAPSIS":"347.901","MEAN_MOTION":"15.73146537","TIME_SYSTEM":"UTC","ARG_OF_PERICENTER":"9.7016","REF_FRAME":"TEME","OBJECT_TYPE":"PAYLOAD","REV_AT_EPOCH":"370","APOAPSIS":"351.924","NORAD_CAT_ID":"51107","COUNTRY_CODE":"US","FILE":"3334872","TLE_LINE2":"2 51107  53.2143  72.2336 0002990   9.7016 254.9873 15.73146537  3700","RCS_SIZE":"LARGE","OBJECT_ID":"2022-005D"},{"SITE":"AFETR","MEAN_ANOMALY":"249.9219","ECCENTRICITY":"0.00035240","DECAY_DATE":null,"CLASSIFICATION_TYPE":"U","ELEMENT_SET_NO":"999","RA_OF_ASC_NODE":"72.2178","LAUNCH_DATE":"2022-01-19","INCLINATION":"53.2162","EPOCH":"2022-02-28T22:00:00.999936","TLE_LINE1":"1 51108U 22005E   22059.91667824  .00502544  00000-0  34435-2 0  9996","BSTAR":"0.00344350000000","MEAN_ELEMENT_THEORY":"SGP4","EPHEMERIS_TYPE":"0","OBJECT_NAME":"STARLINK-3362","MEAN_MOTION_DDOT":"0.0000000000000","MEAN_MOTION_DOT":"0.00502544","PERIOD":"91.561","SEMIMAJOR_AXIS":"6729.236","GP_ID":"197373198","PERIAPSIS":"348.730","MEAN_MOTION":"15.72729813","CENTER_NAME":"EARTH","TIME_SYSTEM":"UTC","ARG_OF_PERICENTER":"16.1101","REF_FRAME":"TEME","OBJECT_TYPE":"PAYLOAD","REV_AT_EPOCH":"774","APOAPSIS":"353.472","NORAD_CAT_ID":"51108","COUNTRY_CODE":"US","TLE_LINE2":"2 51108  53.2162  72.2178 0003524  16.1101 249.9219 15.72729813  7746","FILE":"3334041","RCS_SIZE":"LARGE","OBJECT_ID":"2022-005E"},{"INCLINATION":"53.2152","LAUNCH_DATE":"2022-01-19","RA_OF_ASC_NODE":"71.4914","EPOCH":"2022-02-28T22:00:00.999936","ECCENTRICITY":"0.00029500","MEAN_ANOMALY":"247.8132","SITE":"AFETR","ELEMENT_SET_NO":"999","CLASSIFICATION_TYPE":"U","DECAY_DATE":null,"TLE_LINE2":"2 51109  53.2152  71.4914 0002950  13.9654 247.8132 15.73175588  7763","FILE":"3334041","COUNTRY_CODE":"US","NORAD_CAT_ID":"51109","APOAPSIS":"351.815","REV_AT_EPOCH":"776","OBJECT_TYPE":"PAYLOAD","OBJECT_ID":"2022-005F","RCS_SIZE":"LARGE","EPHEMERIS_TYPE":"0","MEAN_ELEMENT_THEORY":"SGP4","BSTAR":"0.00055781000000","TLE_LINE1":"1 51109U 22005F   22059.91667824  .00078327  00000-0  55781-3 0  9992","REF_FRAME":"TEME","ARG_OF_PERICENTER":"13.9654","TIME_SYSTEM":"UTC","GP_ID":"197373695","PERIAPSIS":"347.845","CENTER_NAME":"EARTH","MEAN_MOTION":"15.73175588","SEMIMAJOR_AXIS":"6727.965","PERIOD":"91.535","MEAN_MOTION_DOT":"0.00078327","MEAN_MOTION_DDOT":"0.0000000000000","OBJECT_NAME":"STARLINK-3358"},{"BSTAR":"-0.00012824000000","TLE_LINE1":"1 51110U 22005G   22059.91667824 -.00018599  00000-0 -12824-3 0  9992","MEAN_ELEMENT_THEORY":"SGP4","EPHEMERIS_TYPE":"0","MEAN_MOTION_DOT":"-0.00018599","OBJECT_NAME":"STARLINK-3344","MEAN_MOTION_DDOT":"0.0000000000000","SEMIMAJOR_AXIS":"6727.855","PERIOD":"91.532","CENTER_NAME":"EARTH","GP_ID":"197373690","PERIAPSIS":"347.392","MEAN_MOTION":"15.73214024","REF_FRAME":"TEME","ARG_OF_PERICENTER":"12.7911","TIME_SYSTEM":"UTC","OBJECT_TYPE":"PAYLOAD","REV_AT_EPOCH":"775","COUNTRY_CODE":"US","NORAD_CAT_ID":"51110","APOAPSIS":"352.048","FILE":"3334041","TLE_LINE2":"2 51110  53.2147  72.2294 0003460  12.7911 254.3505 15.73214024  7754","RCS_SIZE":"LARGE","OBJECT_ID":"2022-005G","SITE":"AFETR","MEAN_ANOMALY":"254.3505","ECCENTRICITY":"0.00034600","DECAY_DATE":null,"ELEMENT_SET_NO":"999","CLASSIFICATION_TYPE":"U","RA_OF_ASC_NODE":"72.2294","LAUNCH_DATE":"2022-01-19","INCLINATION":"53.2147","EPOCH":"2022-02-28T22:00:00.999936"}];
